APRIZESAT 2             
1 28366U 04025A   26169.88506140  .00000121  00000+0  50863-4 0  9991
2 28366  98.1016 335.7693 0104377 244.6616 114.3734 14.38036331151887
SAUDICOMSAT 1           
1 28369U 04025D   26169.59740520  .00000287  00000+0  76904-4 0  9991
2 28369  98.5771 179.7668 0032544  21.4335 338.8216 14.55474767164335
SAUDICOMSAT 2           
1 28370U 04025E   26169.91928149  .00000170  00000+0  55856-4 0  9998
2 28370  98.6640 182.2146 0054207 254.1256 105.3958 14.49982012160358
APRIZESAT 1             
1 28372U 04025G   26169.94881824  .00000175  00000+0  54983-4 0  9996
2 28372  98.6302 180.7223 0045213 148.5826 211.8084 14.51777793162165
NANOSAT-1               
1 28493U 04049B   26169.92672073  .00000768  00000+0  10847-3 0  9996
2 28493  98.2279 306.6301 0002766 294.4947  65.5976 14.80162390155704
SAUDICOMSAT 7           
1 31119U 07012C   26169.34124627  .00000334  00000+0  69122-4 0  9991
2 31119  98.3778 143.4965 0055374 191.5497 168.4439 14.66111114 22602
SAUDICOMSAT 6           
1 31121U 07012E   26169.66378526  .00000448  00000+0  95417-4 0  9990
2 31121  98.4099 137.2076 0070963 323.1284  36.5048 14.62559880 20403
SAUDICOMSAT 5           
1 31124U 07012H   26169.92646713  .00000490  00000+0  92926-4 0  9997
2 31124  98.3489 144.8405 0048533 119.3592 241.2472 14.68158176 23850
SAUDICOMSAT 3           
1 31125U 07012J   26169.40777236  .00000683  00000+0  11944-3 0  9990
2 31125  98.3143 144.8594 0040183  49.5077 310.9619 14.70707619 25003
SAUDICOMSAT 4           
1 31127U 07012L   26169.65774722  .00000338  00000+0  72065-4 0  9995
2 31127  98.3983 142.2582 0062095 253.5371 105.9001 14.64513432 21505
APRIZESAT 4             
1 35684U 09041D   26169.94283362  .00000470  00000+0  62791-4 0  9990
2 35684  98.1412 245.2984 0042294 317.2352  42.5573 14.83881220911623
APRIZESAT 3             
1 35686U 09041F   26169.90459361  .00001564  00000+0  13903-3 0  9997
2 35686  98.2066 323.2105 0062798  62.2169 298.5398 14.96246864916634
S-NET D                 
1 43186U 18014G   26169.97931145  .00003645  00000+0  18947-3 0  9998
2 43186  97.5358  74.7587 0008767  24.8357 335.3296 15.16686603459030
S-NET B                 
1 43187U 18014H   26169.79287081  .00003922  00000+0  20371-3 0  9994
2 43187  97.5364  74.5602 0009289  20.2719 339.8881 15.16656224459008
S-NET A                 
1 43188U 18014J   26169.71428055  .00003683  00000+0  19133-3 0  9993
2 43188  97.5375  74.6911 0009173  21.1515 339.0095 15.16692782458996
S-NET C                 
1 43189U 18014K   26169.73077833  .00003987  00000+0  20707-3 0  9996
2 43189  97.5392  74.7825 0010266  12.7269 347.4221 15.16647668457545
SALSAT                  
1 46495U 20068K   26169.97697597  .00005999  00000+0  21050-3 0  9999
2 46495  97.8853 173.1506 0007950 300.6759  59.3696 15.29820569315637
OOV-CUBE (TUBSAT-30)    
1 60240U 24128F   26169.58586730  .00001416  00000+0  11902-3 0  9992
2 60240  61.9932 220.6959 0044464 134.0792 226.3973 15.02778203106324
LPNTSAT-001 (IOD-1)     
1 68408U 26065A   26169.92181473  .00002039  00000+0  10170-3 0  9999
2 68408  97.4012  50.3946 0016492   4.7296 355.4091 15.18545238 12527
